COSMOS 2251 DEB         
1 37305U 93036BJV 17344.17375971  .00000376  00000-0  16006-3 0  9990
2 37305  73.8715 262.1600 0051574  81.8282 278.8711 14.27973460431655
